{
  "norad_id": 57261,
  "name": "STARLINK-5485",
  "history": [
    {
      "epoch": "2026-03-28T21:03:44.120736Z",
      "apogee_km": 486.5948642598669,
      "perigee_km": 484.5028128162803,
      "latitude_deg": -4.659501736234327e-05,
      "longitude_deg": 139.8186818866889,
      "height_km": 485.33208304364064,
      "semi_major_axis_km": 6863.685838538074,
      "eccentricity": 0.0001524,
      "inclination_deg": 43.0017,
      "raan_deg": 282.0443,
      "arg_perigee_deg": 269.6623,
      "mean_anomaly_deg": 90.4053,
      "mean_motion_rev_day": 15.26745563
    },
    {
      "epoch": "2026-03-28T21:03:44.121600Z",
      "apogee_km": 486.5947956230093,
      "perigee_km": 484.5028814531388,
      "latitude_deg": 2.1229355844252745e-05,
      "longitude_deg": 139.81875060349188,
      "height_km": 485.33207556606817,
      "semi_major_axis_km": 6863.685838538074,
      "eccentricity": 0.00015239,
      "inclination_deg": 43.0017,
      "raan_deg": 282.0443,
      "arg_perigee_deg": 269.6623,
      "mean_anomaly_deg": 90.4054,
      "mean_motion_rev_day": 15.26745563
    },
    {
      "epoch": "2026-03-29T22:09:21.703968Z",
      "apogee_km": 488.5484015036436,
      "perigee_km": 469.67177172361335,
      "latitude_deg": 1.0223862090226895e-05,
      "longitude_deg": 116.46868145647716,
      "height_km": 475.3472143534912,
      "semi_major_axis_km": 6857.247086613628,
      "eccentricity": 0.0013764,
      "inclination_deg": 43.0006,
      "raan_deg": 276.1314,
      "arg_perigee_deg": 292.0322,
      "mean_anomaly_deg": 67.9068,
      "mean_motion_rev_day": 15.28896421
    },
    {
      "epoch": "2026-03-29T22:09:21.704832Z",
      "apogee_km": 488.54860722105695,
      "perigee_km": 469.6715660062009,
      "latitude_deg": 1.2411938648213775e-05,
      "longitude_deg": 116.46868018001493,
      "height_km": 475.3471371943194,
      "semi_major_axis_km": 6857.247086613628,
      "eccentricity": 0.00137643,
      "inclination_deg": 43.0006,
      "raan_deg": 276.1314,
      "arg_perigee_deg": 292.0322,
      "mean_anomaly_deg": 67.9068,
      "mean_motion_rev_day": 15.28896421
    },
    {
      "epoch": "2026-03-30T14:00:03.000384Z",
      "apogee_km": 486.67250323128064,
      "perigee_km": 484.4339792959954,
      "latitude_deg": 17.72822390371966,
      "longitude_deg": -105.62679875211732,
      "height_km": 485.37753184168514,
      "semi_major_axis_km": 6863.690241263638,
      "eccentricity": 0.00016307,
      "inclination_deg": 42.9996,
      "raan_deg": 272.4252,
      "arg_perigee_deg": 261.6919,
      "mean_anomaly_deg": 124.7344,
      "mean_motion_rev_day": 15.26744094
    },
    {
      "epoch": "2026-03-30T20:09:58.746528Z",
      "apogee_km": 486.6090312843471,
      "perigee_km": 484.52260290200775,
      "latitude_deg": 1.5402558983202003e-05,
      "longitude_deg": 140.2521135156906,
      "height_km": 485.5231376058032,
      "semi_major_axis_km": 6863.702817093177,
      "eccentricity": 0.00015199,
      "inclination_deg": 42.9999,
      "raan_deg": 270.9731,
      "arg_perigee_deg": 260.0367,
      "mean_anomaly_deg": 100.0313,
      "mean_motion_rev_day": 15.26739898
    },
    {
      "epoch": "2026-03-31T19:43:07.526496Z",
      "apogee_km": 486.38963242204045,
      "perigee_km": 484.8274439375491,
      "latitude_deg": 1.231462446743394e-05,
      "longitude_deg": 140.46356406657858,
      "height_km": 485.51917603699525,
      "semi_major_axis_km": 6863.7455381797945,
      "eccentricity": 0.0001138,
      "inclination_deg": 42.9988,
      "raan_deg": 265.4384,
      "arg_perigee_deg": 260.1038,
      "mean_anomaly_deg": 99.9685,
      "mean_motion_rev_day": 15.26725644
    },
    {
      "epoch": "2026-04-01T19:16:14.652768Z",
      "apogee_km": 486.7437668970051,
      "perigee_km": 484.39637907804445,
      "latitude_deg": 4.329085239452273e-05,
      "longitude_deg": 140.6789601105083,
      "height_km": 485.65728219718676,
      "semi_major_axis_km": 6863.707072987525,
      "eccentricity": 0.000171,
      "inclination_deg": 43.0007,
      "raan_deg": 259.9007,
      "arg_perigee_deg": 254.6754,
      "mean_anomaly_deg": 105.3909,
      "mean_motion_rev_day": 15.26738478
    },
    {
      "epoch": "2026-04-02T20:00:01.999008Z",
      "apogee_km": 486.93235065835233,
      "perigee_km": 484.20334161152914,
      "latitude_deg": -43.15866556232315,
      "longitude_deg": 33.11333344302412,
      "height_km": 497.5616867083459,
      "semi_major_axis_km": 6863.70484613494,
      "eccentricity": 0.0001988,
      "inclination_deg": 43.0008,
      "raan_deg": 254.0948,
      "arg_perigee_deg": 276.6942,
      "mean_anomaly_deg": 353.4573,
      "mean_motion_rev_day": 15.26739221
    },
    {
      "epoch": "2026-04-02T22:00:01.999584Z",
      "apogee_km": 487.0259693014723,
      "perigee_km": 484.26466967434226,
      "latitude_deg": 5.948986127197365,
      "longitude_deg": 98.73741946707322,
      "height_km": 484.9968600453939,
      "semi_major_axis_km": 6863.7823194879065,
      "eccentricity": 0.00020115,
      "inclination_deg": 43.0009,
      "raan_deg": 253.6241,
      "arg_perigee_deg": 272.4318,
      "mean_anomaly_deg": 96.3185,
      "mean_motion_rev_day": 15.26713372
    },
    {
      "epoch": "2026-04-03T20:00:01.999008Z",
      "apogee_km": 487.1169906788582,
      "perigee_km": 484.31653834293775,
      "latitude_deg": 8.782365082185654,
      "longitude_deg": 125.7666319388398,
      "height_km": 485.024203341448,
      "semi_major_axis_km": 6863.853764510897,
      "eccentricity": 0.000204,
      "inclination_deg": 43.0013,
      "raan_deg": 248.4542,
      "arg_perigee_deg": 272.8293,
      "mean_anomaly_deg": 100.0906,
      "mean_motion_rev_day": 15.26689535
    },
    {
      "epoch": "2026-04-04T11:38:43.803744Z",
      "apogee_km": 487.6325783495013,
      "perigee_km": 483.26486693903917,
      "latitude_deg": 4.042371880131219e-05,
      "longitude_deg": -122.71088256481103,
      "height_km": 485.08956477684194,
      "semi_major_axis_km": 6863.5857226442695,
      "eccentricity": 0.00031818,
      "inclination_deg": 43.0014,
      "raan_deg": 244.7761,
      "arg_perigee_deg": 273.6063,
      "mean_anomaly_deg": 86.4425,
      "mean_motion_rev_day": 15.26778968
    },
    {
      "epoch": "2026-04-05T11:11:52.083456Z",
      "apogee_km": 487.1357751316182,
      "perigee_km": 483.94155774997034,
      "latitude_deg": 3.990287228517658e-05,
      "longitude_deg": -122.49764183490902,
      "height_km": 485.4328294248786,
      "semi_major_axis_km": 6863.675666440794,
      "eccentricity": 0.00023269,
      "inclination_deg": 43.0028,
      "raan_deg": 239.2411,
      "arg_perigee_deg": 265.8211,
      "mean_anomaly_deg": 94.2375,
      "mean_motion_rev_day": 15.26748957
    },
    {
      "epoch": "2026-04-05T17:28:42.140928Z",
      "apogee_km": 487.29647242463307,
      "perigee_km": 483.7903671925869,
      "latitude_deg": 2.9932690207709326e-06,
      "longitude_deg": 141.56081163114956,
      "height_km": 485.0565447512415,
      "semi_major_axis_km": 6863.680419808609,
      "eccentricity": 0.00025541,
      "inclination_deg": 43.0024,
      "raan_deg": 237.7661,
      "arg_perigee_deg": 278.6881,
      "mean_anomaly_deg": 81.3681,
      "mean_motion_rev_day": 15.26747371
    },
    {
      "epoch": "2026-04-07T10:17:35.932704Z",
      "apogee_km": 489.49462950675206,
      "perigee_km": 479.0733569864078,
      "latitude_deg": 8.752337132653629e-06,
      "longitude_deg": -121.9282289688445,
      "height_km": 482.16953999250984,
      "semi_major_axis_km": 6862.42099324658,
      "eccentricity": 0.0007593,
      "inclination_deg": 43.0106,
      "raan_deg": 228.1774,
      "arg_perigee_deg": 291.3279,
      "mean_anomaly_deg": 68.6762,
      "mean_motion_rev_day": 15.27167685
    },
    {
      "epoch": "2026-04-07T20:00:00.999360Z",
      "apogee_km": 487.3710133756149,
      "perigee_km": 483.9569587651431,
      "latitude_deg": 37.83945678151897,
      "longitude_deg": 145.71449993719287,
      "height_km": 489.1404814296652,
      "semi_major_axis_km": 6863.800986070379,
      "eccentricity": 0.0002487,
      "inclination_deg": 43.0017,
      "raan_deg": 225.8937,
      "arg_perigee_deg": 275.0303,
      "mean_anomaly_deg": 148.6657,
      "mean_motion_rev_day": 15.26707144
    },
    {
      "epoch": "2026-04-08T08:16:10.828128Z",
      "apogee_km": 487.1360728736563,
      "perigee_km": 480.83499747695714,
      "latitude_deg": 8.271905285306282e-06,
      "longitude_deg": -97.65686684466311,
      "height_km": 483.9006038713398,
      "semi_major_axis_km": 6862.122535175306,
      "eccentricity": 0.00045912,
      "inclination_deg": 42.9999,
      "raan_deg": 222.9967,
      "arg_perigee_deg": 267.5182,
      "mean_anomaly_deg": 92.5144,
      "mean_motion_rev_day": 15.27267319
    },
    {
      "epoch": "2026-04-09T18:49:36.128352Z",
      "apogee_km": 487.1168376219821,
      "perigee_km": 483.9869954760361,
      "latitude_deg": -1.4150070568357583e-05,
      "longitude_deg": 94.45898063538401,
      "height_km": 485.0504730913441,
      "semi_major_axis_km": 6863.688916549009,
      "eccentricity": 0.000228,
      "inclination_deg": 43.003,
      "raan_deg": 214.8872,
      "arg_perigee_deg": 280.2792,
      "mean_anomaly_deg": 79.7802,
      "mean_motion_rev_day": 15.26744536
    },
    {
      "epoch": "2026-04-10T07:23:15.630720Z",
      "apogee_km": 487.12081387816124,
      "perigee_km": 483.9572083311223,
      "latitude_deg": 4.733503624154748e-05,
      "longitude_deg": -97.42350918860171,
      "height_km": 485.0069692338764,
      "semi_major_axis_km": 6863.6760111046415,
      "eccentricity": 0.00023046,
      "inclination_deg": 43.0032,
      "raan_deg": 211.9351,
      "arg_perigee_deg": 281.2976,
      "mean_anomaly_deg": 78.7617,
      "mean_motion_rev_day": 15.26748842
    }
  ]
}